[
    {
        "Altitude(m)": 607911.0248666864,
        "Argument of Periapsis(deg)": 0.0,
        "Eccentricity": 0.0,
        "Inclination(deg)": 60.0,
        "Latitude(deg)": -14.293033474048823,
        "Longitude(deg)": -101.55735624017349,
        "Mean Anomaly(deg)": -163.6364,
        "RAAN(deg)": 170.00000000000003,
        "Satellite Name": "Test1 760",
        "Satellite Number": 760,
        "Semi-Major Axis(m)": 6980739.136638005,
        "Time(s)": 0
    },
    {
        "Altitude(m)": 608060.2590130327,
        "Argument of Periapsis(deg)": 0.00010418945913296404,
        "Eccentricity": 0.0,
        "Inclination(deg)": 60.0,
        "Latitude(deg)": -14.826694945082894,
        "Longitude(deg)": -101.26874682914973,
        "Mean Anomaly(deg)": -163.01629385453816,
        "RAAN(deg)": 169.99957995086027,
        "Satellite Name": "Test1 760",
        "Satellite Number": 760,
        "Semi-Major Axis(m)": 6980739.136638005,
        "Time(s)": 10
    },
    {
        "Altitude(m)": 608211.9233599,
        "Argument of Periapsis(deg)": 0.0002083789182659281,
        "Eccentricity": 0.0,
        "Inclination(deg)": 60.0,
        "Latitude(deg)": -15.359840194740201,
        "Longitude(deg)": -100.97852861869053,
        "Mean Anomaly(deg)": -162.39618770907634,
        "RAAN(deg)": 169.99915990172053,
        "Satellite Name": "Test1 760",
        "Satellite Number": 760,
        "Semi-Major Axis(m)": 6980739.136638005,
        "Time(s)": 20
    },
    {
        "Altitude(m)": 608365.969825624,
        "Argument of Periapsis(deg)": 0.00031256837739889213,
        "Eccentricity": 0.0,
        "Inclination(deg)": 60.0,
        "Latitude(deg)": -15.89244801385422,
        "Longitude(deg)": -100.6866341411838,
        "Mean Anomaly(deg)": -161.77608156361453,
        "RAAN(deg)": 169.99873985258077,
        "Satellite Name": "Test1 760",
        "Satellite Number": 760,
        "Semi-Major Axis(m)": 6980739.136638005,
        "Time(s)": 30
    },
    {
        "Altitude(m)": 608522.3491310157,
        "Argument of Periapsis(deg)": 0.0004167578365318562,
        "Eccentricity": 0.0,
        "Inclination(deg)": 60.0,
        "Latitude(deg)": -16.424496860996978,
        "Longitude(deg)": -100.39299440999892,
        "Mean Anomaly(deg)": -161.1559754181527,
        "RAAN(deg)": 169.99831980344106,
        "Satellite Name": "Test1 760",
        "Satellite Number": 760,
        "Semi-Major Axis(m)": 6980739.136638005,
        "Time(s)": 40
    },
    {
        "Altitude(m)": 608681.0108206508,
        "Argument of Periapsis(deg)": 0.0005209472956648203,
        "Eccentricity": 0.0,
        "Inclination(deg)": 60.0,
        "Latitude(deg)": -16.955964846457654,
        "Longitude(deg)": -100.09753988415845,
        "Mean Anomaly(deg)": -160.53586927269086,
        "RAAN(deg)": 169.99789975430127,
        "Satellite Name": "Test1 760",
        "Satellite Number": 760,
        "Semi-Major Axis(m)": 6980739.136638005,
        "Time(s)": 50
    },
    {
        "Altitude(m)": 608841.903284749,
        "Argument of Periapsis(deg)": 0.0006251367547977843,
        "Eccentricity": 0.0,
        "Inclination(deg)": 60.0,
        "Latitude(deg)": -17.486829715741663,
        "Longitude(deg)": -99.80019991929709,
        "Mean Anomaly(deg)": -159.915763127229,
        "RAAN(deg)": 169.99747970516154,
        "Satellite Name": "Test1 760",
        "Satellite Number": 760,
        "Semi-Major Axis(m)": 6980739.136638005,
        "Time(s)": 60
    },
    {
        "Altitude(m)": 609004.9737815943,
        "Argument of Periapsis(deg)": 0.0007293262139307483,
        "Eccentricity": 0.0,
        "Inclination(deg)": 60.0,
        "Latitude(deg)": -18.017068832566316,
        "Longitude(deg)": -99.50090221775852,
        "Mean Anomaly(deg)": -159.29565698176722,
        "RAAN(deg)": 169.9970596560218,
        "Satellite Name": "Test1 760",
        "Satellite Number": 760,
        "Semi-Major Axis(m)": 6980739.136638005,
        "Time(s)": 70
    },
    {
        "Altitude(m)": 609170.1684604827,
        "Argument of Periapsis(deg)": 0.0008335156730637124,
        "Eccentricity": 0.0,
        "Inclination(deg)": 60.0,
        "Latitude(deg)": -18.546659161328108,
        "Longitude(deg)": -99.19957379068009,
        "Mean Anomaly(deg)": -158.6755508363054,
        "RAAN(deg)": 169.99663960688207,
        "Satellite Name": "Test1 760",
        "Satellite Number": 760,
        "Semi-Major Axis(m)": 6980739.136638005,
        "Time(s)": 80
    },
    {
        "Altitude(m)": 609337.4323852271,
        "Argument of Periapsis(deg)": 0.0009377051321966765,
        "Eccentricity": 0.0,
        "Inclination(deg)": 60.0,
        "Latitude(deg)": -19.075577249018792,
        "Longitude(deg)": -98.8961404062961,
        "Mean Anomaly(deg)": -158.05544469084356,
        "RAAN(deg)": 169.9962195577423,
        "Satellite Name": "Test1 760",
        "Satellite Number": 760,
        "Semi-Major Axis(m)": 6980739.136638005,
        "Time(s)": 90
    },
    {
        "Altitude(m)": 609506.7095581464,
        "Argument of Periapsis(deg)": 0.0010418945913296407,
        "Eccentricity": 0.0,
        "Inclination(deg)": 60.0,
        "Latitude(deg)": -19.6037992065651,
        "Longitude(deg)": -98.59052603731178,
        "Mean Anomaly(deg)": -157.4353385453817,
        "RAAN(deg)": 169.99579950860257,
        "Satellite Name": "Test1 760",
        "Satellite Number": 760,
        "Semi-Major Axis(m)": 6980739.136638005,
        "Time(s)": 100
    },
    {
        "Altitude(m)": 609677.9429445915,
        "Argument of Periapsis(deg)": 0.0011460840504626045,
        "Eccentricity": 0.0,
        "Inclination(deg)": 60.0,
        "Latitude(deg)": -20.131300689564,
        "Longitude(deg)": -98.28265382020547,
        "Mean Anomaly(deg)": -156.81523239991986,
        "RAAN(deg)": 169.99537945946284,
        "Satellite Name": "Test1 760",
        "Satellite Number": 760,
        "Semi-Major Axis(m)": 6980739.136638005,
        "Time(s)": 110
    },
    {
        "Altitude(m)": 609851.0744979057,
        "Argument of Periapsis(deg)": 0.0012502735095955685,
        "Eccentricity": 0.0,
        "Inclination(deg)": 60.0,
        "Latitude(deg)": -20.658056878389583,
        "Longitude(deg)": -97.9724455006913,
        "Mean Anomaly(deg)": -156.19512625445805,
        "RAAN(deg)": 169.9949594103231,
        "Satellite Name": "Test1 760",
        "Satellite Number": 760,
        "Semi-Major Axis(m)": 6980739.136638005,
        "Time(s)": 120
    },
    {
        "Altitude(m)": 610026.0451849565,
        "Argument of Periapsis(deg)": 0.0013544629687285324,
        "Eccentricity": 0.0,
        "Inclination(deg)": 60.0,
        "Latitude(deg)": -21.184042457642338,
        "Longitude(deg)": -97.65982087820409,
        "Mean Anomaly(deg)": -155.57502010899623,
        "RAAN(deg)": 169.99453936118334,
        "Satellite Name": "Test1 760",
        "Satellite Number": 760,
        "Semi-Major Axis(m)": 6980739.136638005,
        "Time(s)": 130
    },
    {
        "Altitude(m)": 610202.7950120308,
        "Argument of Periapsis(deg)": 0.0014586524278614966,
        "Eccentricity": 0.0,
        "Inclination(deg)": 60.0,
        "Latitude(deg)": -21.70923159491257,
        "Longitude(deg)": -97.34469876226683,
        "Mean Anomaly(deg)": -154.95491396353435,
        "RAAN(deg)": 169.9941193120436,
        "Satellite Name": "Test1 760",
        "Satellite Number": 760,
        "Semi-Major Axis(m)": 6980739.136638005,
        "Time(s)": 140
    },
    {
        "Altitude(m)": 610381.2630512407,
        "Argument of Periapsis(deg)": 0.0015628418869944607,
        "Eccentricity": 0.0,
        "Inclination(deg)": 60.0,
        "Latitude(deg)": -22.233597918829183,
        "Longitude(deg)": -97.0269964149846,
        "Mean Anomaly(deg)": -154.33480781807256,
        "RAAN(deg)": 169.99369926290387,
        "Satellite Name": "Test1 760",
        "Satellite Number": 760,
        "Semi-Major Axis(m)": 6980739.136638005,
        "Time(s)": 150
    },
    {
        "Altitude(m)": 610561.3874673457,
        "Argument of Periapsis(deg)": 0.0016670313461274247,
        "Eccentricity": 0.0,
        "Inclination(deg)": 60.0,
        "Latitude(deg)": -22.75711449636452,
        "Longitude(deg)": -96.70662899253131,
        "Mean Anomaly(deg)": -153.71470167261074,
        "RAAN(deg)": 169.99327921376414,
        "Satellite Name": "Test1 760",
        "Satellite Number": 760,
        "Semi-Major Axis(m)": 6980739.136638005,
        "Time(s)": 160
    },
    {
        "Altitude(m)": 610743.1055450124,
        "Argument of Periapsis(deg)": 0.0017712208052603888,
        "Eccentricity": 0.0,
        "Inclination(deg)": 60.0,
        "Latitude(deg)": -23.279753809362322,
        "Longitude(deg)": -96.38351049850304,
        "Mean Anomaly(deg)": -153.09459552714893,
        "RAAN(deg)": 169.99285916462438,
        "Satellite Name": "Test1 760",
        "Satellite Number": 760,
        "Semi-Major Axis(m)": 6980739.136638005,
        "Time(s)": 170
    },
    {
        "Altitude(m)": 610926.353716464,
        "Argument of Periapsis(deg)": 0.001875410264393353,
        "Eccentricity": 0.0,
        "Inclination(deg)": 60.0,
        "Latitude(deg)": -23.801487730259783,
        "Longitude(deg)": -96.05755322338945,
        "Mean Anomaly(deg)": -152.4744893816871,
        "RAAN(deg)": 169.99243911548464,
        "Satellite Name": "Test1 760",
        "Satellite Number": 760,
        "Semi-Major Axis(m)": 6980739.136638005,
        "Time(s)": 180
    },
    {
        "Altitude(m)": 611111.0675895326,
        "Argument of Periapsis(deg)": 0.0019795997235263173,
        "Eccentricity": 0.0,
        "Inclination(deg)": 60.0,
        "Latitude(deg)": -24.322287496969462,
        "Longitude(deg)": -95.7286671830442,
        "Mean Anomaly(deg)": -151.85438323622523,
        "RAAN(deg)": 169.9920190663449,
        "Satellite Name": "Test1 760",
        "Satellite Number": 760,
        "Semi-Major Axis(m)": 6980739.136638005,
        "Time(s)": 190
    }
]